[{"OBJECT_NAME":"NETSAT-3","OBJECT_ID":"2020-068V","EPOCH":"2026-03-09T21:45:04.914432","MEAN_MOTION":15.39054188,"ECCENTRICITY":0.00049805,"INCLINATION":97.8682,"RA_OF_ASC_NODE":67.7818,"ARG_OF_PERICENTER":358.0585,"MEAN_ANOMALY":2.0638,"EPHEMERIS_TYPE":0,"CLASSIFICATION_TYPE":"U","NORAD_CAT_ID":46505,"ELEMENT_SET_NO":999,"REV_AT_EPOCH":30039,"BSTAR":0.00060371861,"MEAN_MOTION_DOT":0.00023315,"MEAN_MOTION_DDOT":0},{"OBJECT_NAME":"STARLINK-2487","OBJECT_ID":"2021-027BE","EPOCH":"2026-03-10T00:00:02.999808","MEAN_MOTION":15.1061942,"ECCENTRICITY":0.00021427,"INCLINATION":53.0713,"RA_OF_ASC_NODE":150.193,"ARG_OF_PERICENTER":82.213,"MEAN_ANOMALY":69.5138,"EPHEMERIS_TYPE":0,"CLASSIFICATION_TYPE":"U","NORAD_CAT_ID":48144,"ELEMENT_SET_NO":999,"REV_AT_EPOCH":574,"BSTAR":0.083657273,"MEAN_MOTION_DOT":0.01515342,"MEAN_MOTION_DDOT":0}]
